[{"OBJECT_NAME":"AJISAI (EGS)","OBJECT_ID":"1986-061A","EPOCH":"2026-03-09T23:02:01.063392","MEAN_MOTION":12.44515635,"ECCENTRICITY":0.00112705,"INCLINATION":50.0087,"RA_OF_ASC_NODE":92.5172,"ARG_OF_PERICENTER":287.6933,"MEAN_ANOMALY":156.5252,"EPHEMERIS_TYPE":0,"CLASSIFICATION_TYPE":"U","NORAD_CAT_ID":16908,"ELEMENT_SET_NO":999,"REV_AT_EPOCH":46803,"BSTAR":-1.6605877e-5,"MEAN_MOTION_DOT":-1.0e-6,"MEAN_MOTION_DDOT":0},{"OBJECT_NAME":"COSMOS 2191","OBJECT_ID":"1992-030E","EPOCH":"2026-03-09T21:46:13.466784","MEAN_MOTION":12.44571656,"ECCENTRICITY":0.00188849,"INCLINATION":74.0013,"RA_OF_ASC_NODE":225.4653,"ARG_OF_PERICENTER":269.568,"MEAN_ANOMALY":208.7548,"EPHEMERIS_TYPE":0,"CLASSIFICATION_TYPE":"U","NORAD_CAT_ID":21980,"ELEMENT_SET_NO":999,"REV_AT_EPOCH":53381,"BSTAR":0.0001337108,"MEAN_MOTION_DOT":3.0e-8,"MEAN_MOTION_DDOT":0}]
